NASBSAT-2               
1 67285U 25313AP  26013.53113014  .00005385  00000+0  24405-3 0  9990
2 67285  97.4096  90.7307 0010780 176.4532 183.6782 15.21220838  2431
2025-313AQ              
1 67286U 25313AQ  26013.46483774  .00005896  00000+0  26665-3 0  9993
2 67286  97.4117  90.6799 0010486 172.7776 187.3613 15.21253346  2425
LUCA                    
1 67287U 25313AR  26013.46433189  .00007516  00000+0  33816-3 0  9996
2 67287  97.4117  90.6809 0010381 173.3725 186.7650 15.21339213  2425
2025-313AS              
1 67288U 25313AS  26013.53077721  .00003986  00000+0  18147-3 0  9998
2 67288  97.4104  90.7412 0012244 165.9887 194.1691 15.21204370  2433
NASBSAT-1               
1 67289U 25313AT  26013.52922467  .00008326  00000+0  37265-3 0  9999
2 67289  97.4118  90.7473 0010304 173.4420 186.6953 15.21486484  2433
SAKHACUBE-CHOLBON (RS-*)
1 67290U 25313AU  26013.46354738  .00008123  00000+0  36427-3 0  9998
2 67290  97.4117  90.6822 0010131 172.6490 187.4896 15.21427607  2423
QMR-KWT-2               
1 67291U 25313AV  26013.46316667  .00008966  00000+0  40103-3 0  9999
2 67291  97.4117  90.6827 0010024 172.5904 187.5482 15.21485738  2420
SITRO-AIS-64            
1 67292U 25313AW  26013.46258485  .00008207  00000+0  36704-3 0  9993
2 67292  97.4120  90.6846 0009790 172.4137 187.7249 15.21522297  2426
2025-313AX              
1 67293U 25313AX  26013.52933244  .00003190  00000+0  14543-3 0  9997
2 67293  97.4115  90.7448 0011701 163.7007 196.4608 15.21318973  2435
SITRO-AIS-63            
1 67294U 25313AY  26013.26484990  .00008351  00000+0  37299-3 0  9995
2 67294  97.4124  90.4912 0009666 173.0960 187.0410 15.21562448  2398
ZORKIY-2M-5             
1 67295U 25313AZ  26013.52791093  .00005642  00000+0  25317-3 0  9998
2 67295  97.4115  90.7466 0011244 163.3591 196.8016 15.21534450  2430
SITRO-AIS-62            
1 67296U 25313BA  26013.46162714  .00008033  00000+0  35840-3 0  9993
2 67296  97.4128  90.6872 0009452 173.0432 187.0937 15.21612721  2426
