CCSDS_OMM_VERS = 2.0
CREATION_DATE  = 
ORIGINATOR     = 

OBJECT_NAME    = NASBSAT-2
OBJECT_ID      = 2025-313AP
CENTER_NAME    = EARTH
REF_FRAME      = TEME
TIME_SYSTEM    = UTC
MEAN_ELEMENT_THEORY = SGP/SGP4

EPOCH          = 2026-01-13T12:44:49.644096
MEAN_MOTION    = 15.21220838
ECCENTRICITY   = .00107804
INCLINATION    = 97.4096
RA_OF_ASC_NODE = 90.7307
ARG_OF_PERICENTER = 176.4532
MEAN_ANOMALY   = 183.6782

EPHEMERIS_TYPE = 0
CLASSIFICATION_TYPE = U
NORAD_CAT_ID   = 67285
ELEMENT_SET_NO = 999
REV_AT_EPOCH   = 243
BSTAR          = .24404945E-3
MEAN_MOTION_DOT = .5385E-4
MEAN_MOTION_DDOT = 0

CCSDS_OMM_VERS = 2.0
CREATION_DATE  = 
ORIGINATOR     = 

OBJECT_NAME    = 2025-313AQ
OBJECT_ID      = 2025-313AQ
CENTER_NAME    = EARTH
REF_FRAME      = TEME
TIME_SYSTEM    = UTC
MEAN_ELEMENT_THEORY = SGP/SGP4

EPOCH          = 2026-01-13T11:09:21.980736
MEAN_MOTION    = 15.21253346
ECCENTRICITY   = .00104861
INCLINATION    = 97.4117
RA_OF_ASC_NODE = 90.6799
ARG_OF_PERICENTER = 172.7776
MEAN_ANOMALY   = 187.3613

EPHEMERIS_TYPE = 0
CLASSIFICATION_TYPE = U
NORAD_CAT_ID   = 67286
ELEMENT_SET_NO = 999
REV_AT_EPOCH   = 242
BSTAR          = .26665173E-3
MEAN_MOTION_DOT = .5896E-4
MEAN_MOTION_DDOT = 0

CCSDS_OMM_VERS = 2.0
CREATION_DATE  = 
ORIGINATOR     = 

OBJECT_NAME    = LUCA
OBJECT_ID      = 2025-313AR
CENTER_NAME    = EARTH
REF_FRAME      = TEME
TIME_SYSTEM    = UTC
MEAN_ELEMENT_THEORY = SGP/SGP4

EPOCH          = 2026-01-13T11:08:38.275296
MEAN_MOTION    = 15.21339213
ECCENTRICITY   = .0010381
INCLINATION    = 97.4117
RA_OF_ASC_NODE = 90.6809
ARG_OF_PERICENTER = 173.3725
MEAN_ANOMALY   = 186.7650

EPHEMERIS_TYPE = 0
CLASSIFICATION_TYPE = U
NORAD_CAT_ID   = 67287
ELEMENT_SET_NO = 999
REV_AT_EPOCH   = 242
BSTAR          = .33816253E-3
MEAN_MOTION_DOT = .7516E-4
MEAN_MOTION_DDOT = 0

CCSDS_OMM_VERS = 2.0
CREATION_DATE  = 
ORIGINATOR     = 

OBJECT_NAME    = 2025-313AS
OBJECT_ID      = 2025-313AS
CENTER_NAME    = EARTH
REF_FRAME      = TEME
TIME_SYSTEM    = UTC
MEAN_ELEMENT_THEORY = SGP/SGP4

EPOCH          = 2026-01-13T12:44:19.150944
MEAN_MOTION    = 15.21204370
ECCENTRICITY   = .00122446
INCLINATION    = 97.4104
RA_OF_ASC_NODE = 90.7412
ARG_OF_PERICENTER = 165.9887
MEAN_ANOMALY   = 194.1691

EPHEMERIS_TYPE = 0
CLASSIFICATION_TYPE = U
NORAD_CAT_ID   = 67288
ELEMENT_SET_NO = 999
REV_AT_EPOCH   = 243
BSTAR          = .18146696E-3
MEAN_MOTION_DOT = .3986E-4
MEAN_MOTION_DDOT = 0

CCSDS_OMM_VERS = 2.0
CREATION_DATE  = 
ORIGINATOR     = 

OBJECT_NAME    = NASBSAT-1
OBJECT_ID      = 2025-313AT
CENTER_NAME    = EARTH
REF_FRAME      = TEME
TIME_SYSTEM    = UTC
MEAN_ELEMENT_THEORY = SGP/SGP4

EPOCH          = 2026-01-13T12:42:05.011488
MEAN_MOTION    = 15.21486484
ECCENTRICITY   = .00103044
INCLINATION    = 97.4118
RA_OF_ASC_NODE = 90.7473
ARG_OF_PERICENTER = 173.4420
MEAN_ANOMALY   = 186.6953

EPHEMERIS_TYPE = 0
CLASSIFICATION_TYPE = U
NORAD_CAT_ID   = 67289
ELEMENT_SET_NO = 999
REV_AT_EPOCH   = 243
BSTAR          = .37264741E-3
MEAN_MOTION_DOT = .8326E-4
MEAN_MOTION_DDOT = 0

CCSDS_OMM_VERS = 2.0
CREATION_DATE  = 
ORIGINATOR     = 

OBJECT_NAME    = SAKHACUBE-CHOLBON (RS-18S)
OBJECT_ID      = 2025-313AU
CENTER_NAME    = EARTH
REF_FRAME      = TEME
TIME_SYSTEM    = UTC
MEAN_ELEMENT_THEORY = SGP/SGP4

EPOCH          = 2026-01-13T11:07:30.493632
MEAN_MOTION    = 15.21427607
ECCENTRICITY   = .00101311
INCLINATION    = 97.4117
RA_OF_ASC_NODE = 90.6822
ARG_OF_PERICENTER = 172.6490
MEAN_ANOMALY   = 187.4896

EPHEMERIS_TYPE = 0
CLASSIFICATION_TYPE = U
NORAD_CAT_ID   = 67290
ELEMENT_SET_NO = 999
REV_AT_EPOCH   = 242
BSTAR          = .36426538E-3
MEAN_MOTION_DOT = .8123E-4
MEAN_MOTION_DDOT = 0

CCSDS_OMM_VERS = 2.0
CREATION_DATE  = 
ORIGINATOR     = 

OBJECT_NAME    = QMR-KWT-2
OBJECT_ID      = 2025-313AV
CENTER_NAME    = EARTH
REF_FRAME      = TEME
TIME_SYSTEM    = UTC
MEAN_ELEMENT_THEORY = SGP/SGP4

EPOCH          = 2026-01-13T11:06:57.600288
MEAN_MOTION    = 15.21485738
ECCENTRICITY   = .00100247
INCLINATION    = 97.4117
RA_OF_ASC_NODE = 90.6827
ARG_OF_PERICENTER = 172.5904
MEAN_ANOMALY   = 187.5482

EPHEMERIS_TYPE = 0
CLASSIFICATION_TYPE = U
NORAD_CAT_ID   = 67291
ELEMENT_SET_NO = 999
REV_AT_EPOCH   = 242
BSTAR          = .40102656E-3
MEAN_MOTION_DOT = .8966E-4
MEAN_MOTION_DDOT = 0

CCSDS_OMM_VERS = 2.0
CREATION_DATE  = 
ORIGINATOR     = 

OBJECT_NAME    = SITRO-AIS-64
OBJECT_ID      = 2025-313AW
CENTER_NAME    = EARTH
REF_FRAME      = TEME
TIME_SYSTEM    = UTC
MEAN_ELEMENT_THEORY = SGP/SGP4

EPOCH          = 2026-01-13T11:06:07.331040
MEAN_MOTION    = 15.21522297
ECCENTRICITY   = .000979
INCLINATION    = 97.4120
RA_OF_ASC_NODE = 90.6846
ARG_OF_PERICENTER = 172.4137
MEAN_ANOMALY   = 187.7249

EPHEMERIS_TYPE = 0
CLASSIFICATION_TYPE = U
NORAD_CAT_ID   = 67292
ELEMENT_SET_NO = 999
REV_AT_EPOCH   = 242
BSTAR          = .36704E-3
MEAN_MOTION_DOT = .8207E-4
MEAN_MOTION_DDOT = 0

CCSDS_OMM_VERS = 2.0
CREATION_DATE  = 
ORIGINATOR     = 

OBJECT_NAME    = 2025-313AX
OBJECT_ID      = 2025-313AX
CENTER_NAME    = EARTH
REF_FRAME      = TEME
TIME_SYSTEM    = UTC
MEAN_ELEMENT_THEORY = SGP/SGP4

EPOCH          = 2026-01-13T12:42:14.322816
MEAN_MOTION    = 15.21318973
ECCENTRICITY   = .00117015
INCLINATION    = 97.4115
RA_OF_ASC_NODE = 90.7448
ARG_OF_PERICENTER = 163.7007
MEAN_ANOMALY   = 196.4608

EPHEMERIS_TYPE = 0
CLASSIFICATION_TYPE = U
NORAD_CAT_ID   = 67293
ELEMENT_SET_NO = 999
REV_AT_EPOCH   = 243
BSTAR          = .14543129E-3
MEAN_MOTION_DOT = .319E-4
MEAN_MOTION_DDOT = 0

CCSDS_OMM_VERS = 2.0
CREATION_DATE  = 
ORIGINATOR     = 

OBJECT_NAME    = SITRO-AIS-63
OBJECT_ID      = 2025-313AY
CENTER_NAME    = EARTH
REF_FRAME      = TEME
TIME_SYSTEM    = UTC
MEAN_ELEMENT_THEORY = SGP/SGP4

EPOCH          = 2026-01-13T06:21:23.031360
MEAN_MOTION    = 15.21562448
ECCENTRICITY   = .0009666
INCLINATION    = 97.4124
RA_OF_ASC_NODE = 90.4912
ARG_OF_PERICENTER = 173.0960
MEAN_ANOMALY   = 187.0410

EPHEMERIS_TYPE = 0
CLASSIFICATION_TYPE = U
NORAD_CAT_ID   = 67294
ELEMENT_SET_NO = 999
REV_AT_EPOCH   = 239
BSTAR          = .37299E-3
MEAN_MOTION_DOT = .8351E-4
MEAN_MOTION_DDOT = 0

CCSDS_OMM_VERS = 2.0
CREATION_DATE  = 
ORIGINATOR     = 

OBJECT_NAME    = ZORKIY-2M-5
OBJECT_ID      = 2025-313AZ
CENTER_NAME    = EARTH
REF_FRAME      = TEME
TIME_SYSTEM    = UTC
MEAN_ELEMENT_THEORY = SGP/SGP4

EPOCH          = 2026-01-13T12:40:11.504352
MEAN_MOTION    = 15.21534450
ECCENTRICITY   = .00112446
INCLINATION    = 97.4115
RA_OF_ASC_NODE = 90.7466
ARG_OF_PERICENTER = 163.3591
MEAN_ANOMALY   = 196.8016

EPHEMERIS_TYPE = 0
CLASSIFICATION_TYPE = U
NORAD_CAT_ID   = 67295
ELEMENT_SET_NO = 999
REV_AT_EPOCH   = 243
BSTAR          = .25316871E-3
MEAN_MOTION_DOT = .5642E-4
MEAN_MOTION_DDOT = 0

CCSDS_OMM_VERS = 2.0
CREATION_DATE  = 
ORIGINATOR     = 

OBJECT_NAME    = SITRO-AIS-62
OBJECT_ID      = 2025-313BA
CENTER_NAME    = EARTH
REF_FRAME      = TEME
TIME_SYSTEM    = UTC
MEAN_ELEMENT_THEORY = SGP/SGP4

EPOCH          = 2026-01-13T11:04:44.584896
MEAN_MOTION    = 15.21612721
ECCENTRICITY   = .0009452
INCLINATION    = 97.4128
RA_OF_ASC_NODE = 90.6872
ARG_OF_PERICENTER = 173.0432
MEAN_ANOMALY   = 187.0937

EPHEMERIS_TYPE = 0
CLASSIFICATION_TYPE = U
NORAD_CAT_ID   = 67296
ELEMENT_SET_NO = 999
REV_AT_EPOCH   = 242
BSTAR          = .3584E-3
MEAN_MOTION_DOT = .8033E-4
MEAN_MOTION_DDOT = 0

